{
  "norad_id": 53496,
  "name": "STARLINK-4465",
  "history": [
    {
      "epoch": "2026-03-28T22:00:01.999584Z",
      "apogee_km": 281.4739474258904,
      "perigee_km": 275.86518848399464,
      "latitude_deg": -77.06984827057536,
      "longitude_deg": -134.6977456582777,
      "height_km": 304.90364602314446,
      "semi_major_axis_km": 6656.806567954942,
      "eccentricity": 0.00042128,
      "inclination_deg": 97.6348,
      "raan_deg": 237.1314,
      "arg_perigee_deg": 319.0533,
      "mean_anomaly_deg": 300.4002,
      "mean_motion_rev_day": 15.98467666
    },
    {
      "epoch": "2026-03-29T04:00:01.999584Z",
      "apogee_km": 281.0057840025711,
      "perigee_km": 275.13234777003345,
      "latitude_deg": -75.23581553972532,
      "longitude_deg": 140.45089943274616,
      "height_km": 304.11115224761426,
      "semi_major_axis_km": 6656.206065886302,
      "eccentricity": 0.0004412,
      "inclination_deg": 97.6347,
      "raan_deg": 237.4173,
      "arg_perigee_deg": 321.3399,
      "mean_anomaly_deg": 295.8967,
      "mean_motion_rev_day": 15.98683984
    },
    {
      "epoch": "2026-03-30T04:00:01.999584Z",
      "apogee_km": 278.99179195671695,
      "perigee_km": 272.7223987200896,
      "latitude_deg": -68.75485081110382,
      "longitude_deg": 150.93694193821474,
      "height_km": 300.5462341789483,
      "semi_major_axis_km": 6653.994095338403,
      "eccentricity": 0.0004711,
      "inclination_deg": 97.6343,
      "raan_deg": 238.5561,
      "arg_perigee_deg": 318.1768,
      "mean_anomaly_deg": 291.8079,
      "mean_motion_rev_day": 15.9948122
    },
    {
      "epoch": "2026-03-30T06:00:02.000160Z",
      "apogee_km": 278.90902250529507,
      "perigee_km": 272.6148333534102,
      "latitude_deg": 9.39641040608806,
      "longitude_deg": -40.26557231120355,
      "height_km": 276.2490227141821,
      "semi_major_axis_km": 6653.898927929353,
      "eccentricity": 0.00047297,
      "inclination_deg": 97.6343,
      "raan_deg": 238.651,
      "arg_perigee_deg": 318.2213,
      "mean_anomaly_deg": 51.2817,
      "mean_motion_rev_day": 15.99515535
    },
    {
      "epoch": "2026-03-30T14:00:03.000384Z",
      "apogee_km": 278.1754352045764,
      "perigee_km": 271.60317663801015,
      "latitude_deg": 51.6133182026124,
      "longitude_deg": 30.729649067396547,
      "height_km": 286.5663704865005,
      "semi_major_axis_km": 6653.026305921293,
      "eccentricity": 0.00049393,
      "inclination_deg": 97.6343,
      "raan_deg": 239.0299,
      "arg_perigee_deg": 315.3654,
      "mean_anomaly_deg": 172.4734,
      "mean_motion_rev_day": 15.99830238
    },
    {
      "epoch": "2026-03-30T22:00:00.999936Z",
      "apogee_km": 277.4098914646138,
      "perigee_km": 270.9564756545433,
      "latitude_deg": -65.33387087628287,
      "longitude_deg": -115.76699993410993,
      "height_km": 297.8127712487885,
      "semi_major_axis_km": 6652.320183559578,
      "eccentricity": 0.00048505,
      "inclination_deg": 97.6342,
      "raan_deg": 239.4098,
      "arg_perigee_deg": 313.1584,
      "mean_anomaly_deg": 293.165,
      "mean_motion_rev_day": 16.0008497
    },
    {
      "epoch": "2026-03-31T20:58:57.735840Z",
      "apogee_km": 276.6669415343731,
      "perigee_km": 270.51276385026176,
      "latitude_deg": 4.4110095667341144e-05,
      "longitude_deg": 96.51743106660976,
      "height_km": 275.06596700597333,
      "semi_major_axis_km": 6651.726852692317,
      "eccentricity": 0.0004626,
      "inclination_deg": 97.6358,
      "raan_deg": 240.5034,
      "arg_perigee_deg": 303.9763,
      "mean_anomaly_deg": 56.1075,
      "mean_motion_rev_day": 16.00299065
    },
    {
      "epoch": "2026-04-01T20:58:51.566880Z",
      "apogee_km": 274.9100123864846,
      "perigee_km": 268.001085728014,
      "latitude_deg": 2.5797641766874388e-05,
      "longitude_deg": 96.69836416096135,
      "height_km": 272.56839593909893,
      "semi_major_axis_km": 6649.592549057249,
      "eccentricity": 0.0005195,
      "inclination_deg": 97.6349,
      "raan_deg": 241.6442,
      "arg_perigee_deg": 307.1083,
      "mean_anomaly_deg": 52.972,
      "mean_motion_rev_day": 16.01069593
    },
    {
      "epoch": "2026-04-02T19:27:58.476672Z",
      "apogee_km": 272.25602160950984,
      "perigee_km": 265.7351845259018,
      "latitude_deg": 5.326874866313699e-05,
      "longitude_deg": 119.56843390489608,
      "height_km": 270.36695839840405,
      "semi_major_axis_km": 6647.1326030677055,
      "eccentricity": 0.0004905,
      "inclination_deg": 97.6345,
      "raan_deg": 242.7165,
      "arg_perigee_deg": 304.0769,
      "mean_anomaly_deg": 56.0044,
      "mean_motion_rev_day": 16.01958452
    },
    {
      "epoch": "2026-04-02T22:27:47.800224Z",
      "apogee_km": 272.1357445940612,
      "perigee_km": 265.17416057460287,
      "latitude_deg": -5.545816136005791e-05,
      "longitude_deg": 74.63244985749502,
      "height_km": 269.7221500260552,
      "semi_major_axis_km": 6646.791952584332,
      "eccentricity": 0.00052368,
      "inclination_deg": 97.6347,
      "raan_deg": 242.8591,
      "arg_perigee_deg": 307.7532,
      "mean_anomaly_deg": 52.3271,
      "mean_motion_rev_day": 16.02081605
    },
    {
      "epoch": "2026-04-03T20:55:57.642816Z",
      "apogee_km": 268.7719143704762,
      "perigee_km": 261.8985779845807,
      "latitude_deg": -1.7285274128370497e-05,
      "longitude_deg": 97.74074845089459,
      "height_km": 266.48317318067615,
      "semi_major_axis_km": 6643.472246177528,
      "eccentricity": 0.0005173,
      "inclination_deg": 97.6343,
      "raan_deg": 243.9312,
      "arg_perigee_deg": 306.663,
      "mean_anomaly_deg": 53.4173,
      "mean_motion_rev_day": 16.03282582
    },
    {
      "epoch": "2026-04-04T05:54:59.442912Z",
      "apogee_km": 267.7628991948177,
      "perigee_km": 260.8778592720946,
      "latitude_deg": -2.4827309543438073e-05,
      "longitude_deg": -36.95690411385741,
      "height_km": 264.92118851095813,
      "semi_major_axis_km": 6642.457379233456,
      "eccentricity": 0.00051826,
      "inclination_deg": 97.6341,
      "raan_deg": 244.36,
      "arg_perigee_deg": 319.0179,
      "mean_anomaly_deg": 41.071,
      "mean_motion_rev_day": 16.03650032
    },
    {
      "epoch": "2026-04-05T13:20:16.417248Z",
      "apogee_km": 264.0898979745807,
      "perigee_km": 256.1741604533845,
      "latitude_deg": 3.083078021399399e-05,
      "longitude_deg": -148.06356993818486,
      "height_km": 261.05102368550376,
      "semi_major_axis_km": 6638.269029213982,
      "eccentricity": 0.00059622,
      "inclination_deg": 97.6335,
      "raan_deg": 245.8645,
      "arg_perigee_deg": 305.2471,
      "mean_anomaly_deg": 54.8251,
      "mean_motion_rev_day": 16.05167982
    },
    {
      "epoch": "2026-04-05T20:48:51.985440Z",
      "apogee_km": 263.1047670976677,
      "perigee_km": 254.9967785144072,
      "latitude_deg": 5.5683106119806006e-05,
      "longitude_deg": 99.83957452917183,
      "height_km": 260.82039516819583,
      "semi_major_axis_km": 6637.187772806037,
      "eccentricity": 0.0006108,
      "inclination_deg": 97.6331,
      "raan_deg": 246.2229,
      "arg_perigee_deg": 290.7284,
      "mean_anomaly_deg": 69.3342,
      "mean_motion_rev_day": 16.05560242
    },
    {
      "epoch": "2026-04-05T22:18:34.669152Z",
      "apogee_km": 262.4702734997509,
      "perigee_km": 255.17890749642902,
      "latitude_deg": -2.3664626830500594e-05,
      "longitude_deg": 77.42153092291205,
      "height_km": 260.31713086925623,
      "semi_major_axis_km": 6636.961590498089,
      "eccentricity": 0.0005493,
      "inclination_deg": 97.633,
      "raan_deg": 246.2941,
      "arg_perigee_deg": 297.9961,
      "mean_anomaly_deg": 62.0763,
      "mean_motion_rev_day": 16.05642317
    }
  ]
}